GLOBALSTAR M035         
1 25851U 99037A   25361.45500656 -.00000030  00000+0  12675-2 0  9993
2 25851  51.9984 343.9578 0013653 296.0880 236.2136 11.04540908117610
GLOBALSTAR M032         
1 25852U 99037B   25361.18101825 -.00000052  00000+0  47113-3 0  9999
2 25852  51.9921 156.4521 0013658 129.5818 230.6190 11.19075409156394
GLOBALSTAR M051         
1 25853U 99037C   25361.19506205 -.00000101  00000+0 -72016-3 0  9998
2 25853  51.9813 295.2841 0000542  43.4575 316.6278 11.42201323154442
GLOBALSTAR M030         
1 25854U 99037D   25361.40160686 -.00000027  00000+0  10139-2 0  9995
2 25854  51.9882  88.6014 0003393  47.7001 312.4103 11.55112882172371
GLOBALSTAR M048         
1 25872U 99041A   25360.92235366 -.00000064  00000+0  16562-3 0  9992
2 25872  51.9348 238.4280 0013308 153.1276 296.4373 11.33861408146845
GLOBALSTAR M026         
1 25873U 99041B   25361.50848512 -.00000214  00000+0 -55156-2 0  9990
2 25873  52.0015  99.7557 0001756 199.5930 245.8433 11.06846906169890
GLOBALSTAR M043         
1 25874U 99041C   25361.29892463 -.00000020  00000+0  14278-2 0  9995
2 25874  51.9434 352.8696 0013448 280.6208  92.3324 11.25699993144623
GLOBALSTAR M028         
1 25875U 99041D   25361.32908441 -.00000053  00000+0  30909-3 0  9990
2 25875  51.9643 337.1436 0063405 130.7109 229.9283 12.50593397214346
